{
  "type": "FeatureCollection",
  "features": [
    {
      "type": "Feature",
      "properties": {
        "norad_id": 64751,
        "name": "PROGRESS-MS 31",
        "group": "stations",
        "lat": 6.605866326635493,
        "lon": 75.58064505625299,
        "alt_km": 415.84154180795304,
        "timestamp": "2025-12-27T07:26:23.980966+00:00",
        "meta_object_name": "PROGRESS-MS 31",
        "meta_object_id": "2025-146A",
        "meta_epoch": "2025-12-26T20:34:16.428576",
        "meta_mean_motion": 15.49855582,
        "meta_eccentricity": 0.00032301,
        "meta_inclination": 51.6319,
        "meta_ra_of_asc_node": 72.5609,
        "meta_arg_of_pericenter": 307.0606,
        "meta_mean_anomaly": 53.0087,
        "meta_ephemeris_type": 0,
        "meta_classification_type": "U",
        "meta_norad_cat_id": 64751,
        "meta_element_set_no": 999,
        "meta_rev_at_epoch": 675,
        "meta_bstar": 0.00027091986,
        "meta_mean_motion_dot": 0.00014958,
        "meta_mean_motion_ddot": 0,
        "tle_line1": "1 64751U 25146A   25360.85713459  .00014958  00000+0  27092-3 0  9998",
        "tle_line2": "2 64751  51.6319  72.5609 0003230 307.0606  53.0087 15.49855582  6752"
      },
      "geometry": {
        "type": "Point",
        "coordinates": [
          75.58064505625299,
          6.605866326635493
        ]
      }
    },
    {
      "type": "Feature",
      "properties": {
        "norad_id": 64786,
        "name": "TIANZHOU-9",
        "group": "stations",
        "lat": -21.36003295690087,
        "lon": -98.07494345652368,
        "alt_km": 396.0671472333797,
        "timestamp": "2025-12-27T07:26:23.980977+00:00",
        "meta_object_name": "TIANZHOU-9",
        "meta_object_id": "2025-149A",
        "meta_epoch": "2025-12-26T22:21:45.161280",
        "meta_mean_motion": 15.59735336,
        "meta_eccentricity": 0.00087329,
        "meta_inclination": 41.4675,
        "meta_ra_of_asc_node": 290.5114,
        "meta_arg_of_pericenter": 154.941,
        "meta_mean_anomaly": 205.1854,
        "meta_ephemeris_type": 0,
        "meta_classification_type": "U",
        "meta_norad_cat_id": 64786,
        "meta_element_set_no": 999,
        "meta_rev_at_epoch": 25530,
        "meta_bstar": 0.00023104085,
        "meta_mean_motion_dot": 0.00018761,
        "meta_mean_motion_ddot": 0,
        "tle_line1": "1 64786U 25149A   25360.93177270  .00018761  00000+0  23104-3 0  9999",
        "tle_line2": "2 64786  41.4675 290.5114 0008732 154.9410 205.1854 15.59735336255303"
      },
      "geometry": {
        "type": "Point",
        "coordinates": [
          -98.07494345652368,
          -21.36003295690087
        ]
      }
    },
    {
      "type": "Feature",
      "properties": {
        "norad_id": 65077,
        "name": "CREW DRAGON 11",
        "group": "stations",
        "lat": 6.6058673865845305,
        "lon": 75.58064590966042,
        "alt_km": 415.8415417017377,
        "timestamp": "2025-12-27T07:26:23.980987+00:00",
        "meta_object_name": "CREW DRAGON 11",
        "meta_object_id": "2025-166A",
        "meta_epoch": "2025-12-26T20:34:16.428576",
        "meta_mean_motion": 15.49855582,
        "meta_eccentricity": 0.00032301,
        "meta_inclination": 51.6319,
        "meta_ra_of_asc_node": 72.5609,
        "meta_arg_of_pericenter": 307.0606,
        "meta_mean_anomaly": 53.0087,
        "meta_ephemeris_type": 0,
        "meta_classification_type": "U",
        "meta_norad_cat_id": 65077,
        "meta_element_set_no": 999,
        "meta_rev_at_epoch": 214,
        "meta_bstar": 0.00027091986,
        "meta_mean_motion_dot": 0.00014958,
        "meta_mean_motion_ddot": 0,
        "tle_line1": "1 65077U 25166A   25360.85713459  .00014958  00000+0  27092-3 0  9992",
        "tle_line2": "2 65077  51.6319  72.5609 0003230 307.0606  53.0087 15.49855582  2143"
      },
      "geometry": {
        "type": "Point",
        "coordinates": [
          75.58064590966042,
          6.6058673865845305
        ]
      }
    },
    {
      "type": "Feature",
      "properties": {
        "norad_id": 65304,
        "name": "DRAGON CRS-33",
        "group": "stations",
        "lat": 6.605867891322271,
        "lon": 75.580646316045,
        "alt_km": 415.84154165115706,
        "timestamp": "2025-12-27T07:26:23.980997+00:00",
        "meta_object_name": "DRAGON CRS-33",
        "meta_object_id": "2025-186A",
        "meta_epoch": "2025-12-26T20:34:16.428576",
        "meta_mean_motion": 15.49855582,
        "meta_eccentricity": 0.00032301,
        "meta_inclination": 51.6319,
        "meta_ra_of_asc_node": 72.5609,
        "meta_arg_of_pericenter": 307.0606,
        "meta_mean_anomaly": 53.0087,
        "meta_ephemeris_type": 0,
        "meta_classification_type": "U",
        "meta_norad_cat_id": 65304,
        "meta_element_set_no": 999,
        "meta_rev_at_epoch": 11,
        "meta_bstar": 0.00027091986,
        "meta_mean_motion_dot": 0.00014958,
        "meta_mean_motion_ddot": 0,
        "tle_line1": "1 65304U 25186A   25360.85713459  .00014958  00000+0  27092-3 0  9997",
        "tle_line2": "2 65304  51.6319  72.5609 0003230 307.0606  53.0087 15.49855582   111"
      },
      "geometry": {
        "type": "Point",
        "coordinates": [
          75.580646316045,
          6.605867891322271
        ]
      }
    },
    {
      "type": "Feature",
      "properties": {
        "norad_id": 65586,
        "name": "PROGRESS-MS 32",
        "group": "stations",
        "lat": 6.6058683960597335,
        "lon": 75.58064672242935,
        "alt_km": 415.84154160058006,
        "timestamp": "2025-12-27T07:26:23.981007+00:00",
        "meta_object_name": "PROGRESS-MS 32",
        "meta_object_id": "2025-204A",
        "meta_epoch": "2025-12-26T20:34:16.428576",
        "meta_mean_motion": 15.49855582,
        "meta_eccentricity": 0.00032301,
        "meta_inclination": 51.6319,
        "meta_ra_of_asc_node": 72.5609,
        "meta_arg_of_pericenter": 307.0606,
        "meta_mean_anomaly": 53.0087,
        "meta_ephemeris_type": 0,
        "meta_classification_type": "U",
        "meta_norad_cat_id": 65586,
        "meta_element_set_no": 999,
        "meta_rev_at_epoch": 27,
        "meta_bstar": 0.00027091986,
        "meta_mean_motion_dot": 0.00014958,
        "meta_mean_motion_ddot": 0,
        "tle_line1": "1 65586U 25204A   25360.85713459  .00014958  00000+0  27092-3 0  9990",
        "tle_line2": "2 65586  51.6319  72.5609 0003230 307.0606  53.0087 15.49855582   270"
      },
      "geometry": {
        "type": "Point",
        "coordinates": [
          75.58064672242935,
          6.6058683960597335
        ]
      }
    },
    {
      "type": "Feature",
      "properties": {
        "norad_id": 65616,
        "name": "CYGNUS NG-23",
        "group": "stations",
        "lat": 6.60586910269188,
        "lon": 75.58064729136721,
        "alt_km": 415.8415415297686,
        "timestamp": "2025-12-27T07:26:23.981021+00:00",
        "meta_object_name": "CYGNUS NG-23",
        "meta_object_id": "2025-208A",
        "meta_epoch": "2025-12-26T20:34:16.428576",
        "meta_mean_motion": 15.49855582,
        "meta_eccentricity": 0.00032301,
        "meta_inclination": 51.6319,
        "meta_ra_of_asc_node": 72.5609,
        "meta_arg_of_pericenter": 307.0606,
        "meta_mean_anomaly": 53.0087,
        "meta_ephemeris_type": 0,
        "meta_classification_type": "U",
        "meta_norad_cat_id": 65616,
        "meta_element_set_no": 999,
        "meta_rev_at_epoch": 22,
        "meta_bstar": 0.00027091986,
        "meta_mean_motion_dot": 0.00014958,
        "meta_mean_motion_ddot": 0,
        "tle_line1": "1 65616U 25208A   25360.85713459  .00014958  00000+0  27092-3 0  9998",
        "tle_line2": "2 65616  51.6319  72.5609 0003230 307.0606  53.0087 15.49855582   229"
      },
      "geometry": {
        "type": "Point",
        "coordinates": [
          75.58064729136721,
          6.60586910269188
        ]
      }
    },
    {
      "type": "Feature",
      "properties": {
        "norad_id": 65729,
        "name": "DRAGONFLY",
        "group": "stations",
        "lat": -19.470523054415086,
        "lon": -102.85436598155725,
        "alt_km": 346.3813384793666,
        "timestamp": "2025-12-27T07:26:23.981032+00:00",
        "meta_object_name": "DRAGONFLY",
        "meta_object_id": "1998-067XH",
        "meta_epoch": "2025-12-26T10:48:09.332064",
        "meta_mean_motion": 15.76805342,
        "meta_eccentricity": 0.0008231,
        "meta_inclination": 51.6248,
        "meta_ra_of_asc_node": 65.3139,
        "meta_arg_of_pericenter": 358.0707,
        "meta_mean_anomaly": 2.026,
        "meta_ephemeris_type": 0,
        "meta_classification_type": "U",
        "meta_norad_cat_id": 65729,
        "meta_element_set_no": 999,
        "meta_rev_at_epoch": 1532,
        "meta_bstar": 0.0012148,
        "meta_mean_motion_dot": 0.00204396,
        "meta_mean_motion_ddot": 0,
        "tle_line1": "1 65729U 98067XH  25360.45010801  .00204396  00000+0  12148-2 0  9995",
        "tle_line2": "2 65729  51.6248  65.3139 0008231 358.0707   2.0260 15.76805342 15320"
      },
      "geometry": {
        "type": "Point",
        "coordinates": [
          -102.85436598155725,
          -19.470523054415086
        ]
      }
    }
  ]
}